HAWK-7B                 
1 56193U 23054R   26191.75923777  .00003146  00000+0  11927-3 0  9990
2 56193  97.2701  76.7697 0001829  24.7331 335.3996 15.27600889180625
HAWK-7C                 
1 56200U 23054Y   26191.10407944  .00003980  00000+0  15019-3 0  9993
2 56200  97.2679  76.8926 0001490  12.3347 347.7929 15.27600583180521
HAWK-8A                 
1 59443U 24066B   26191.30073425  .00000785  00000+0  82031-4 0  9993
2 59443  45.5947 157.1267 0002619 199.2694 160.8088 14.99277997123302
HAWK-8B                 
1 59445U 24066D   26192.03415610  .00004278  00000+0  36392-3 0  9991
2 59445  45.6155 155.3050 0002967 205.9425 154.1308 14.99278929123407
HAWK-9A                 
1 59446U 24066E   26190.39089194  .00001032  00000+0  10220-3 0  9990
2 59446  45.6087 162.4649 0002239 178.3686 181.7203 14.99204334123161
HAWK-9C                 
1 59448U 24066G   26191.92378748  .00000842  00000+0  86788-4 0  9999
2 59448  45.6049 153.6412 0002181 166.3682 193.7258 14.99210831123397
HAWK-8C                 
1 59449U 24066H   26191.36730961  .00000756  00000+0  79712-4 0  9990
2 59449  45.6068 157.7751 0002422 210.7095 149.3645 14.99281452123305
HAWK-9B                 
1 59450U 24066J   26191.25745308  .00000953  00000+0  95753-4 0  9993
2 59450  45.6129 158.9211 0002328 157.1131 202.9855 14.99207538123299
HAWK-10A                
1 60540U 24149CA  26192.17303811  .00000910  00000+0  84962-4 0  9991
2 60540  97.6892 267.6725 0003542  20.3086 339.8276 14.96587762103575
HAWK-10B                
1 60545U 24149CF  26191.43743691  .00001002  00000+0  93024-4 0  9990
2 60545  97.6812 266.2811 0005926  31.6486 328.5091 14.96585822103463
HAWK-10C                
1 60575U 24149DM  26192.17322947  .00000660  00000+0  63014-4 0  9997
2 60575  97.6731 266.3179 0003041   8.5591 351.5682 14.96586235103573
HAWK-11B                
1 62379U 24247C   26191.27564898  .00004995  00000+0  17560-3 0  9992
2 62379  45.0130 163.1543 0003725 353.4639   6.6196 15.30623067 86549
HAWK-11C                
1 62381U 24247E   26190.62254468  .00004549  00000+0  16086-3 0  9999
2 62381  45.0015 166.0719 0004744 340.0518  20.0180 15.30613240 86445
HAWK-11A                
1 62382U 24247F   26191.27526931  .00004480  00000+0  15855-3 0  9996
2 62382  44.9915 161.8260 0004141 342.5606  17.5135 15.30620006 86543
HAWK-12C                
1 64621U 25138A   26190.84574837  .00002785  00000+0  13840-3 0  9992
2 64621  97.4353 192.9065 0015609  67.9229 292.3661 15.18379418 57301
HAWK-12B                
1 64622U 25138B   26190.84592159  .00002773  00000+0  13789-3 0  9999
2 64622  97.4474 193.5917 0014542  63.9150 296.3579 15.18378814 57304
